     2.10           N: GPS NAV DATA                         RINEX VERSION / TYPE
teqc  2008Oct2      gpsops              20090123 00:06:12UTCPGM / RUN BY / DATE
Linux 2.4.20-8|Pentium IV|gcc -static|Linux|486/DX+         COMMENT
soc2rnx ver 1.20    gpsops              23-Jan-2009 00:05:58COMMENT
Forced Modulo Decimation to 30 seconds                      COMMENT
MADR                                    MARKER NAME         COMMENT
13407S012                               MARKER NUMBER       COMMENT
4849202.3940 -360328.9929 4114913.1862                      COMMENT
                                                            COMMENT
This data is provided as a public service by NASA/JPL.      COMMENT
No warranty is expressed or implied regarding suitability   COMMENT
for use.  For further information, contact:                 COMMENT
Dave Stowers, NASA/JPL m/s 238-600                          COMMENT
4800 Oak Grove Drive, Pasadena CA 91109 USA                 COMMENT
                                                            END OF HEADER
26 09  1 22 19 59 44.0 3.847200423479D-05 3.296918293927D-12 0.000000000000D+00
    8.000000000000D+00 5.250000000000D+01 4.010167039554D-09-6.260600549657D-01
    3.056600689888D-06 1.948660309426D-02 2.441927790642D-06 5.153639173508D+03
    4.175840000000D+05 1.117587089539D-08-2.278793313025D+00 2.961605787277D-07
    9.931779601114D-01 3.484062500000D+02 9.667441129784D-01-8.265344284766D-09
    7.857470152314D-11 1.000000000000D+00 1.515000000000D+03 0.000000000000D+00
    2.000000000000D+00 0.000000000000D+00-6.053596735001D-09 8.000000000000D+00
    4.159500000000D+05
28 09  1 22 20  0  0.0-2.369564026594D-05 1.136868377216D-13 0.000000000000D+00
    1.070000000000D+02-7.234375000000D+01 4.165887811663D-09 1.525152835069D+00
   -3.769993782043D-06 1.457715756260D-02 1.021102070808D-05 5.153645971298D+03
    4.176000000000D+05-3.557652235031D-07-2.065429740868D-01-1.508742570877D-07
    9.659938920144D-01 1.886562500000D+02-2.063844903196D+00-7.834969215059D-09
    3.214419607765D-10 1.000000000000D+00 1.515000000000D+03 0.000000000000D+00
    2.000000000000D+00 0.000000000000D+00-1.024454832077D-08 1.070000000000D+02
    4.172700000000D+05
 2 09  1 22 19 59 44.0 1.604184508324D-04-1.705302565824D-12 0.000000000000D+00
    0.000000000000D+00-3.812500000000D+00 5.247361430809D-09 4.659595965161D-02
   -2.961605787277D-07 8.915607118979D-03 7.105991244316D-06 5.153600570679D+03
    4.175840000000D+05 1.098960638046D-07 1.846809928921D+00-5.774199962616D-08
    9.415032521324D-01 2.345937500000D+02 2.704826070108D+00-8.298559954046D-09
   -4.339466470482D-10 1.000000000000D+00 1.515000000000D+03 0.000000000000D+00
    2.000000000000D+00 0.000000000000D+00-1.722946763039D-08 0.000000000000D+00
    4.174500000000D+05
 7 09  1 22 22  0  0.0 2.319226041436D-05-2.273736754432D-13 0.000000000000D+00
    1.500000000000D+01-9.321875000000D+01 4.346252467432D-09-7.193952787981D-01
   -4.960224032402D-06 2.309632021934D-03 3.108754754066D-06 5.153681550980D+03
    4.248000000000D+05 3.725290298462D-08-1.282984928192D+00-1.247972249985D-07
    9.655190361205D-01 3.229687500000D+02 2.922071011164D+00-8.116052351872D-09
   -1.964367538078D-10 1.000000000000D+00 1.515000000000D+03 0.000000000000D+00
    2.000000000000D+00 0.000000000000D+00-1.071020960808D-08 1.500000000000D+01
    4.176000000000D+05
 8 09  1 22 22  0  0.0-1.874486915767D-04-1.591615728103D-12 0.000000000000D+00
    4.500000000000D+01-1.001875000000D+02 3.838731327140D-09-1.387196896742D+00
   -5.433335900307D-06 1.050179055892D-02 3.891065716743D-06 5.153690561295D+03
    4.248000000000D+05-8.940696716309D-08-1.225185381592D+00-1.434236764908D-07
    9.867145144715D-01 3.176562500000D+02 2.973827829809D+00-7.866756253403D-09
   -2.964409193827D-11 1.000000000000D+00 1.515000000000D+03 0.000000000000D+00
    2.800000000000D+00 0.000000000000D+00-4.190951585770D-09 4.500000000000D+01
    4.176000000000D+05
 2 09  1 22 21 59 44.0 1.604063436389D-04-1.705302565824D-12 0.000000000000D+00
    1.700000000000D+01-5.593750000000D+00 5.241646907062D-09 1.096819835337D+00
   -3.352761268616D-07 8.916017948650D-03 6.733462214470D-06 5.153601295471D+03
    4.247840000000D+05 1.490116119385D-07 1.846750552002D+00 6.332993507385D-08
    9.415003789613D-01 2.378437500000D+02 2.704832540595D+00-8.217127990649D-09
   -4.653765276575D-10 1.000000000000D+00 1.515000000000D+03 0.000000000000D+00
    2.000000000000D+00 0.000000000000D+00-1.722946763039D-08 1.700000000000D+01
    4.176000000000D+05
10 09  1 22 22  0  0.0-9.922776371241D-06-5.684341886081D-13 0.000000000000D+00
    5.800000000000D+01 8.112500000000D+01 4.309108063076D-09 1.977749140139D+00
    4.237517714500D-06 8.483986370265D-03 9.479001164436D-06 5.153782186508D+03
    4.248000000000D+05-2.086162567139D-07 2.930342507979D+00 1.862645149231D-09
    9.604137680142D-01 2.000625000000D+02 5.823357186544D-01-7.809968173666D-09
   -2.289381076197D-10 1.000000000000D+00 1.515000000000D+03 0.000000000000D+00
    2.000000000000D+00 0.000000000000D+00-2.793967723846D-09 5.800000000000D+01
    4.176000000000D+05
 4 09  1 22 22  0  0.0-3.092824481428D-04-1.364242052659D-11 0.000000000000D+00
    1.400000000000D+01-8.843750000000D+00 5.217360181136D-09-2.345094074078D+00
   -6.593763828278D-07 8.642956614494D-03 7.171183824539D-06 5.153661357880D+03
    4.248000000000D+05 3.352761268616D-08 1.865290143542D+00-1.750886440277D-07
    9.407501345906D-01 2.304687500000D+02 4.672931165654D-01-8.162840015051D-09
   -3.478716331070D-10 1.000000000000D+00 1.515000000000D+03 0.000000000000D+00
    2.000000000000D+00 0.000000000000D+00-6.053596735001D-09 1.400000000000D+01
    4.176000000000D+05
13 09  1 22 22  0  0.0 2.859411761165D-04 1.364242052659D-12 0.000000000000D+00
    8.800000000000D+01 7.121875000000D+01 3.764085360693D-09 1.787467866869D+00
    3.486871719360D-06 3.711353871040D-03 2.523884177208D-06 5.153763210297D+03
    4.248000000000D+05-2.048909664154D-08-2.276791008273D+00-4.656612873077D-08
    9.952978352013D-01 3.457812500000D+02 1.506902753554D+00-7.884971297847D-09
    9.428964182777D-11 1.000000000000D+00 1.515000000000D+03 0.000000000000D+00
    2.800000000000D+00 0.000000000000D+00-1.117587089539D-08 8.800000000000D+01
    4.176000000000D+05
25 09  1 22 22  0  0.0 1.922529190779D-04 2.580691216281D-11 0.000000000000D+00
    4.900000000000D+01-8.909375000000D+01 4.227676099679D-09-2.495399905388D+00
   -4.513189196587D-06 1.179062272422D-02 2.223998308182D-06 5.153679115295D+03
    4.248000000000D+05 1.620501279831D-07-1.377774288207D+00 1.080334186554D-07
    9.678361593808D-01 3.392187500000D+02-1.235953618749D+00-7.940330746647D-09
   -1.957224383395D-10 1.000000000000D+00 1.515000000000D+03 0.000000000000D+00
    4.000000000000D+00 0.000000000000D+00-7.450580596924D-09 4.900000000000D+01
    4.176000000000D+05
26 09  1 22 21 59 44.0 3.849575296044D-05 3.296918293927D-12 0.000000000000D+00
    9.000000000000D+00 6.546875000000D+01 3.908377085308D-09 4.241249934112D-01
    3.637745976448D-06 1.948868390173D-02 2.888962626457D-06 5.153643157959D+03
    4.247840000000D+05-1.974403858185D-07-2.278852395898D+00 2.123415470123D-07
    9.931784150789D-01 3.396562500000D+02 9.667562420322D-01-8.228557038144D-09
   -2.428672592533D-11 1.000000000000D+00 1.515000000000D+03 0.000000000000D+00
    2.000000000000D+00 0.000000000000D+00-6.053596735001D-09 9.000000000000D+00
    4.176000000000D+05
27 09  1 22 22  0  0.0 1.845043152571D-05 3.069544618484D-12 0.000000000000D+00
    5.300000000000D+01-9.312500000000D+01 4.151958660029D-09 3.014153099369D+00
   -4.908069968224D-06 2.108082582708D-02 2.279877662659D-06 5.155199279785D+03
    4.248000000000D+05 2.942979335785D-07-1.341964199727D+00-1.117587089539D-07
    9.724967984066D-01 3.390312500000D+02-1.659413759781D+00-7.723178844256D-09
   -1.871506527187D-10 1.000000000000D+00 1.515000000000D+03 0.000000000000D+00
    2.800000000000D+00 0.000000000000D+00-4.656612873077D-09 5.300000000000D+01
    4.176000000000D+05
28 09  1 22 22  0  0.0-2.369517460465D-05 1.136868377216D-13 0.000000000000D+00
    1.080000000000D+02-7.681250000000D+01 3.954807590753D-09 2.575333101167D+00
   -4.012137651443D-06 1.457740436308D-02 9.980052709579D-06 5.153646078110D+03
    4.248000000000D+05 1.192092895508D-07-2.065977267217D-01-2.011656761169D-07
    9.659983626921D-01 1.893437500000D+02-2.063831068379D+00-7.384593312238D-09
    3.360854278785D-10 1.000000000000D+00 1.515000000000D+03 0.000000000000D+00
    2.800000000000D+00 0.000000000000D+00-1.024454832077D-08 1.080000000000D+02
    4.176000000000D+05
24 09  1 22 22  0  0.0 1.596403308213D-04 2.955857780762D-12 0.000000000000D+00
    5.600000000000D+01 1.718750000000D+00 4.823058042584D-09-3.023521212743D+00
    1.154839992523D-07 7.018547388725D-03 7.538124918938D-06 5.153664480209D+03
    4.248000000000D+05-2.048909664154D-08 1.909300082424D+00 1.229345798492D-07
    9.509384461518D-01 2.293437500000D+02-6.409054682167D-01-7.871042146213D-09
   -4.368039089218D-10 1.000000000000D+00 1.515000000000D+03 0.000000000000D+00
    2.800000000000D+00 0.000000000000D+00-1.396983861923D-09 5.600000000000D+01
    4.177200000000D+05
15 09  1 22 22  0  0.0-2.460526302457D-04-5.570655048359D-12 0.000000000000D+00
    9.600000000000D+01 7.409375000000D+01 4.657694011651D-09 1.920904539647D+00
    4.004687070847D-06 1.376317581162D-03 2.011656761169D-06 5.153573089600D+03
    4.248000000000D+05 5.215406417847D-08-2.344067494723D+00-1.676380634308D-08
    9.570869781943D-01 3.346875000000D+02-7.886523032426D-01-8.303203004591D-09
    6.071681481333D-11 1.000000000000D+00 1.515000000000D+03 0.000000000000D+00
    2.800000000000D+00 0.000000000000D+00-9.778887033463D-09 9.600000000000D+01
    4.190400000000D+05
